YAOGAN-30 03A           
1 43028U 17075A   26068.67863850  .00004172  00000+0  31199-3 0  9991
2 43028  34.9939 156.9097 0001741 176.2032 183.8689 15.02242801452275
STARLINK-5488           
1 57250U 23094AJ  26068.25721519  .00060325  00000+0  43848-2 0  9995
2 57250  43.0024  19.7799 0002741 245.5795 114.4761 15.03027168147208
